STARLINK-4413           
1 53207U 22084U   25329.10906463  .00000672  00000+0  56886-4 0  9994
2 53207  97.6042  27.8175 0003267  83.8654 276.2943 15.01262715183622
STARLINK-4425           
1 53208U 22084V   25329.11646612  .00000990  00000+0  81598-4 0  9994
2 53208  97.6044  27.8323 0001723  76.4880 283.6537 15.01263786183624
STARLINK-4423           
1 53209U 22084W   25329.10746014 -.00000183  00000+0 -96771-5 0  9997
2 53209  97.6034  27.8223 0003762  75.3570 284.8071 15.01271723183628
STARLINK-4427           
1 53210U 22084X   25329.11276631  .00001390  00000+0  11276-3 0  9997
2 53210  97.6045  27.8280 0002538  87.8729 272.2786 15.01260004184163
STARLINK-4416           
1 53212U 22084Z   25329.10416047  .00000793  00000+0  59167-4 0  9993
2 53212  97.6031  28.1230 0001827  92.5873 267.5563 15.05651467183634
STARLINK-4414           
1 53213U 22084AA  25329.09795536  .00000165  00000+0  17408-4 0  9990
2 53213  97.6038  27.8034 0003464  84.6582 275.5038 15.01263158184143
STARLINK-4353           
1 53214U 22084AB  25329.10536142  .00000277  00000+0  26120-4 0  9994
2 53214  97.6029  27.8192 0003398  76.6320 283.5283 15.01262628183620
STARLINK-4335           
1 53215U 22084AC  25329.08754715  .00000174  00000+0  16268-4 0  9998
2 53215  97.6037  28.1193 0000996  94.5219 265.6121 15.05646807184163
STARLINK-4376           
1 53216U 22084AD  25329.10165806  .00000955  00000+0  78862-4 0  9994
2 53216  97.6033  27.8105 0003793  66.9629 293.1995 15.01262987183629
STARLINK-4384           
1 53218U 22084AF  25329.13185510  .00001487  00000+0  10725-3 0  9997
2 53218  97.6043  28.2198 0001275  96.3008 263.8364 15.05654177184175
STARLINK-4373           
1 53219U 22084AG  25329.09308052  .00000315  00000+0  26066-4 0  9996
2 53219  97.6036  28.0941 0000643 109.2541 250.8755 15.05649363183648
STARLINK-4363           
1 53220U 22084AH  25329.09424917  .00000520  00000+0  45031-4 0  9998
2 53220  97.6038  27.7986 0002031  51.9162 308.2245 15.01261372184146
STARLINK-4377           
1 53221U 22084AJ  25329.15350743 -.00000170  00000+0 -87354-5 0  9999
2 53221  97.6036  27.8549 0001529  94.4351 265.7048 15.01256443183638
STARLINK-4356           
1 53224U 22084AM  25329.09054948  .00000563  00000+0  48409-4 0  9994
2 53224  97.6036  27.7940 0002847  78.6351 281.5193 15.01260077183627
STARLINK-4358           
1 53225U 22084AN  25329.09585194  .00002454  00000+0  17421-3 0  9997
2 53225  97.6038  28.0735 0001697  90.8992 269.2429 15.05656429183646
STARLINK-4359           
1 53226U 22084AP  25329.14608243  .00000487  00000+0  42481-4 0  9994
2 53226  97.6037  27.8605 0002255 204.7003 155.4114 15.01264424183631
STARLINK-4366           
1 53227U 22084AQ  25329.14292698  .00000637  00000+0  48365-4 0  9992
2 53227  97.6034  28.1373 0001512  91.5625 268.5775 15.05649335183655
