[{"OBJECT_NAME":"STARLINK-4413","OBJECT_ID":"2022-084U","EPOCH":"2025-11-25T02:37:03.184032","MEAN_MOTION":15.01262715,"ECCENTRICITY":0.0003267,"INCLINATION":97.6042,"RA_OF_ASC_NODE":27.8175,"ARG_OF_PERICENTER":83.8654,"MEAN_ANOMALY":276.2943,"EPHEMERIS_TYPE":0,"CLASSIFICATION_TYPE":"U","NORAD_CAT_ID":53207,"ELEMENT_SET_NO":999,"REV_AT_EPOCH":18362,"BSTAR":5.6886e-5,"MEAN_MOTION_DOT":6.72e-6,"MEAN_MOTION_DDOT":0},{"OBJECT_NAME":"STARLINK-4425","OBJECT_ID":"2022-084V","EPOCH":"2025-11-25T02:47:42.672768","MEAN_MOTION":15.01263786,"ECCENTRICITY":0.0001723,"INCLINATION":97.6044,"RA_OF_ASC_NODE":27.8323,"ARG_OF_PERICENTER":76.488,"MEAN_ANOMALY":283.6537,"EPHEMERIS_TYPE":0,"CLASSIFICATION_TYPE":"U","NORAD_CAT_ID":53208,"ELEMENT_SET_NO":999,"REV_AT_EPOCH":18362,"BSTAR":8.1598e-5,"MEAN_MOTION_DOT":9.9e-6,"MEAN_MOTION_DDOT":0},{"OBJECT_NAME":"STARLINK-4423","OBJECT_ID":"2022-084W","EPOCH":"2025-11-25T02:34:44.556096","MEAN_MOTION":15.01271723,"ECCENTRICITY":0.0003762,"INCLINATION":97.6034,"RA_OF_ASC_NODE":27.8223,"ARG_OF_PERICENTER":75.357,"MEAN_ANOMALY":284.8071,"EPHEMERIS_TYPE":0,"CLASSIFICATION_TYPE":"U","NORAD_CAT_ID":53209,"ELEMENT_SET_NO":999,"REV_AT_EPOCH":18362,"BSTAR":-9.6771e-6,"MEAN_MOTION_DOT":-1.83e-6,"MEAN_MOTION_DDOT":0},{"OBJECT_NAME":"STARLINK-4427","OBJECT_ID":"2022-084X","EPOCH":"2025-11-25T02:42:23.009184","MEAN_MOTION":15.01260004,"ECCENTRICITY":0.0002538,"INCLINATION":97.6045,"RA_OF_ASC_NODE":27.828,"ARG_OF_PERICENTER":87.8729,"MEAN_ANOMALY":272.2786,"EPHEMERIS_TYPE":0,"CLASSIFICATION_TYPE":"U","NORAD_CAT_ID":53210,"ELEMENT_SET_NO":999,"REV_AT_EPOCH":18416,"BSTAR":0.00011276,"MEAN_MOTION_DOT":1.39e-5,"MEAN_MOTION_DDOT":0},{"OBJECT_NAME":"STARLINK-4416","OBJECT_ID":"2022-084Z","EPOCH":"2025-11-25T02:29:59.464608","MEAN_MOTION":15.05651467,"ECCENTRICITY":0.0001827,"INCLINATION":97.6031,"RA_OF_ASC_NODE":28.123,"ARG_OF_PERICENTER":92.5873,"MEAN_ANOMALY":267.5563,"EPHEMERIS_TYPE":0,"CLASSIFICATION_TYPE":"U","NORAD_CAT_ID":53212,"ELEMENT_SET_NO":999,"REV_AT_EPOCH":18363,"BSTAR":5.9167e-5,"MEAN_MOTION_DOT":7.93e-6,"MEAN_MOTION_DDOT":0},{"OBJECT_NAME":"STARLINK-4414","OBJECT_ID":"2022-084AA","EPOCH":"2025-11-25T02:21:03.343104","MEAN_MOTION":15.01263158,"ECCENTRICITY":0.0003464,"INCLINATION":97.6038,"RA_OF_ASC_NODE":27.8034,"ARG_OF_PERICENTER":84.6582,"MEAN_ANOMALY":275.5038,"EPHEMERIS_TYPE":0,"CLASSIFICATION_TYPE":"U","NORAD_CAT_ID":53213,"ELEMENT_SET_NO":999,"REV_AT_EPOCH":18414,"BSTAR":1.7408e-5,"MEAN_MOTION_DOT":1.65e-6,"MEAN_MOTION_DDOT":0},{"OBJECT_NAME":"STARLINK-4353","OBJECT_ID":"2022-084AB","EPOCH":"2025-11-25T02:31:43.226688","MEAN_MOTION":15.01262628,"ECCENTRICITY":0.0003398,"INCLINATION":97.6029,"RA_OF_ASC_NODE":27.8192,"ARG_OF_PERICENTER":76.632,"MEAN_ANOMALY":283.5283,"EPHEMERIS_TYPE":0,"CLASSIFICATION_TYPE":"U","NORAD_CAT_ID":53214,"ELEMENT_SET_NO":999,"REV_AT_EPOCH":18362,"BSTAR":2.612e-5,"MEAN_MOTION_DOT":2.77e-6,"MEAN_MOTION_DDOT":0},{"OBJECT_NAME":"STARLINK-4335","OBJECT_ID":"2022-084AC","EPOCH":"2025-11-25T02:06:04.073760","MEAN_MOTION":15.05646807,"ECCENTRICITY":9.96e-5,"INCLINATION":97.6037,"RA_OF_ASC_NODE":28.1193,"ARG_OF_PERICENTER":94.5219,"MEAN_ANOMALY":265.6121,"EPHEMERIS_TYPE":0,"CLASSIFICATION_TYPE":"U","NORAD_CAT_ID":53215,"ELEMENT_SET_NO":999,"REV_AT_EPOCH":18416,"BSTAR":1.6268e-5,"MEAN_MOTION_DOT":1.74e-6,"MEAN_MOTION_DDOT":0},{"OBJECT_NAME":"STARLINK-4376","OBJECT_ID":"2022-084AD","EPOCH":"2025-11-25T02:26:23.256384","MEAN_MOTION":15.01262987,"ECCENTRICITY":0.0003793,"INCLINATION":97.6033,"RA_OF_ASC_NODE":27.8105,"ARG_OF_PERICENTER":66.9629,"MEAN_ANOMALY":293.1995,"EPHEMERIS_TYPE":0,"CLASSIFICATION_TYPE":"U","NORAD_CAT_ID":53216,"ELEMENT_SET_NO":999,"REV_AT_EPOCH":18362,"BSTAR":7.8862e-5,"MEAN_MOTION_DOT":9.55e-6,"MEAN_MOTION_DDOT":0},{"OBJECT_NAME":"STARLINK-4384","OBJECT_ID":"2022-084AF","EPOCH":"2025-11-25T03:09:52.280640","MEAN_MOTION":15.05654177,"ECCENTRICITY":0.0001275,"INCLINATION":97.6043,"RA_OF_ASC_NODE":28.2198,"ARG_OF_PERICENTER":96.3008,"MEAN_ANOMALY":263.8364,"EPHEMERIS_TYPE":0,"CLASSIFICATION_TYPE":"U","NORAD_CAT_ID":53218,"ELEMENT_SET_NO":999,"REV_AT_EPOCH":18417,"BSTAR":0.00010725,"MEAN_MOTION_DOT":1.487e-5,"MEAN_MOTION_DDOT":0},{"OBJECT_NAME":"STARLINK-4373","OBJECT_ID":"2022-084AG","EPOCH":"2025-11-25T02:14:02.156928","MEAN_MOTION":15.05649363,"ECCENTRICITY":6.43e-5,"INCLINATION":97.6036,"RA_OF_ASC_NODE":28.0941,"ARG_OF_PERICENTER":109.2541,"MEAN_ANOMALY":250.8755,"EPHEMERIS_TYPE":0,"CLASSIFICATION_TYPE":"U","NORAD_CAT_ID":53219,"ELEMENT_SET_NO":999,"REV_AT_EPOCH":18364,"BSTAR":2.6066e-5,"MEAN_MOTION_DOT":3.15e-6,"MEAN_MOTION_DDOT":0},{"OBJECT_NAME":"STARLINK-4363","OBJECT_ID":"2022-084AH","EPOCH":"2025-11-25T02:15:43.128288","MEAN_MOTION":15.01261372,"ECCENTRICITY":0.0002031,"INCLINATION":97.6038,"RA_OF_ASC_NODE":27.7986,"ARG_OF_PERICENTER":51.9162,"MEAN_ANOMALY":308.2245,"EPHEMERIS_TYPE":0,"CLASSIFICATION_TYPE":"U","NORAD_CAT_ID":53220,"ELEMENT_SET_NO":999,"REV_AT_EPOCH":18414,"BSTAR":4.5031e-5,"MEAN_MOTION_DOT":5.2e-6,"MEAN_MOTION_DDOT":0},{"OBJECT_NAME":"STARLINK-4377","OBJECT_ID":"2022-084AJ","EPOCH":"2025-11-25T03:41:03.041952","MEAN_MOTION":15.01256443,"ECCENTRICITY":0.0001529,"INCLINATION":97.6036,"RA_OF_ASC_NODE":27.8549,"ARG_OF_PERICENTER":94.4351,"MEAN_ANOMALY":265.7048,"EPHEMERIS_TYPE":0,"CLASSIFICATION_TYPE":"U","NORAD_CAT_ID":53221,"ELEMENT_SET_NO":999,"REV_AT_EPOCH":18363,"BSTAR":-8.7354e-6,"MEAN_MOTION_DOT":-1.7e-6,"MEAN_MOTION_DDOT":0},{"OBJECT_NAME":"STARLINK-4356","OBJECT_ID":"2022-084AM","EPOCH":"2025-11-25T02:10:23.475072","MEAN_MOTION":15.01260077,"ECCENTRICITY":0.0002847,"INCLINATION":97.6036,"RA_OF_ASC_NODE":27.794,"ARG_OF_PERICENTER":78.6351,"MEAN_ANOMALY":281.5193,"EPHEMERIS_TYPE":0,"CLASSIFICATION_TYPE":"U","NORAD_CAT_ID":53224,"ELEMENT_SET_NO":999,"REV_AT_EPOCH":18362,"BSTAR":4.8409e-5,"MEAN_MOTION_DOT":5.63e-6,"MEAN_MOTION_DDOT":0},{"OBJECT_NAME":"STARLINK-4358","OBJECT_ID":"2022-084AN","EPOCH":"2025-11-25T02:18:01.607616","MEAN_MOTION":15.05656429,"ECCENTRICITY":0.0001697,"INCLINATION":97.6038,"RA_OF_ASC_NODE":28.0735,"ARG_OF_PERICENTER":90.8992,"MEAN_ANOMALY":269.2429,"EPHEMERIS_TYPE":0,"CLASSIFICATION_TYPE":"U","NORAD_CAT_ID":53225,"ELEMENT_SET_NO":999,"REV_AT_EPOCH":18364,"BSTAR":0.00017421,"MEAN_MOTION_DOT":2.454e-5,"MEAN_MOTION_DDOT":0},{"OBJECT_NAME":"STARLINK-4359","OBJECT_ID":"2022-084AP","EPOCH":"2025-11-25T03:30:21.521952","MEAN_MOTION":15.01264424,"ECCENTRICITY":0.0002255,"INCLINATION":97.6037,"RA_OF_ASC_NODE":27.8605,"ARG_OF_PERICENTER":204.7003,"MEAN_ANOMALY":155.4114,"EPHEMERIS_TYPE":0,"CLASSIFICATION_TYPE":"U","NORAD_CAT_ID":53226,"ELEMENT_SET_NO":999,"REV_AT_EPOCH":18363,"BSTAR":4.2481e-5,"MEAN_MOTION_DOT":4.87e-6,"MEAN_MOTION_DDOT":0},{"OBJECT_NAME":"STARLINK-4366","OBJECT_ID":"2022-084AQ","EPOCH":"2025-11-25T03:25:48.891072","MEAN_MOTION":15.05649335,"ECCENTRICITY":0.0001512,"INCLINATION":97.6034,"RA_OF_ASC_NODE":28.1373,"ARG_OF_PERICENTER":91.5625,"MEAN_ANOMALY":268.5775,"EPHEMERIS_TYPE":0,"CLASSIFICATION_TYPE":"U","NORAD_CAT_ID":53227,"ELEMENT_SET_NO":999,"REV_AT_EPOCH":18365,"BSTAR":4.8365e-5,"MEAN_MOTION_DOT":6.37e-6,"MEAN_MOTION_DDOT":0}]
